COMMENT,ORIGINATOR,NORAD_CAT_ID,OBJECT_NAME,OBJECT_TYPE,CLASSIFICATION_TYPE,INTLDES,EPOCH,EPOCH_MICROSECONDS,MEAN_MOTION,ECCENTRICITY,INCLINATION,RA_OF_ASC_NODE,ARG_OF_PERICENTER,MEAN_ANOMALY,EPHEMERIS_TYPE,ELEMENT_SET_NO,REV_AT_EPOCH,BSTAR,MEAN_MOTION_DOT,MEAN_MOTION_DDOT,FILE,TLE_LINE0,TLE_LINE1,TLE_LINE2,OBJECT_ID,OBJECT_NUMBER,SEMIMAJOR_AXIS,PERIOD,APOGEE,PERIGEE,DECAYED
"GENERATED VIA SPACETRACK.ORG API","18 SPCS","55087","SPACEBEE-167","PAYLOAD","U","23001CG","2023-02-26 02:58:09","919488","15.15181705","0.001606","97.4934","118.4495","33.6799","326.545","0","999","825","0.00092078","0.00017296","0","3840349","0 SPACEBEE-167","1 55087U 23001CG  23057.12372592  .00017296  00000-0  92078-3 0  9993","2 55087  97.4934 118.4495 0016060  33.6799 326.5450 15.15181705  8259","2023-001CG","55087","6898.564","95.038","531.508","509.350","0"
"GENERATED VIA SPACETRACK.ORG API","18 SPCS","55087","SPACEBEE-167","PAYLOAD","U","23001CG","2023-02-26 14:03:51","40224","15.15197792","0.0016027","97.4934","118.9053","32.1542","328.0664","0","999","832","0.0009832","0.00018484","0","3841853","0 SPACEBEE-167","1 55087U 23001CG  23057.58600741  .00018484  00000-0  98320-3 0  9999","2 55087  97.4934 118.9053 0016027  32.1542 328.0664 15.15197792  8322","2023-001CG","55087","6898.515","95.037","531.436","509.324","0"
"GENERATED VIA SPACETRACK.ORG API","18 SPCS","55087","SPACEBEE-167","PAYLOAD","U","23001CG","2023-02-26 21:59:20","163840","15.15207576","0.0015989","97.4935","119.2309","31.1131","329.1044","0","999","837","0.00092451","0.00017379","0","3843368","0 SPACEBEE-167","1 55087U 23001CG  23057.91620560  .00017379  00000-0  92451-3 0  9998","2 55087  97.4935 119.2309 0015989  31.1131 329.1044 15.15207576  8371","2023-001CG","55087","6898.485","95.036","531.380","509.320","0"
"GENERATED VIA SPACETRACK.ORG API","18 SPCS","55087","SPACEBEE-167","PAYLOAD","U","23001CG","2023-02-27 09:05:00","385152","15.15234292","0.0015978","97.4936","119.6868","29.5811","330.6322","0","999","844","0.0012844","0.0002421","0","3845855","0 SPACEBEE-167","1 55087U 23001CG  23058.37847668  .00024210  00000-0  12844-2 0  9998","2 55087  97.4936 119.6868 0015978  29.5811 330.6322 15.15234292  8449","2023-001CG","55087","6898.404","95.035","531.292","509.247","0"
"GENERATED VIA SPACETRACK.ORG API","18 SPCS","55087","SPACEBEE-167","PAYLOAD","U","23001CG","2023-02-27 09:05:00","385152","15.15234292","0.0015978","97.4936","119.6868","29.5811","330.6322","0","999","844","0.0012844","0.0002421","0","3846396","0 SPACEBEE-167","1 55087U 23001CG  23058.37847668  .00024210  00000-0  12844-2 0  9998","2 55087  97.4936 119.6868 0015978  29.5811 330.6322 15.15234292  8449","2023-001CG","55087","6898.404","95.035","531.292","509.247","0"
"GENERATED VIA SPACETRACK.ORG API","18 SPCS","55087","SPACEBEE-167","PAYLOAD","U","23001CG","2023-02-27 21:45:45","418752","15.15268177","0.0015939","97.4937","120.2078","27.9834","332.2252","0","999","852","0.0015428","0.00029141","0","3846812","0 SPACEBEE-167","1 55087U 23001CG  23058.90677568  .00029141  00000-0  15428-2 0  9996","2 55087  97.4937 120.2078 0015939  27.9834 332.2252 15.15268177  8523","2023-001CG","55087","6898.302","95.033","531.162","509.171","0"
"GENERATED VIA SPACETRACK.ORG API","18 SPCS","55087","SPACEBEE-167","PAYLOAD","U","23001CG","2023-02-28 02:31:02","56224","15.15280351","0.0015942","97.4936","120.4034","27.417","332.7901","0","999","855","0.001473","0.00027824","0","3847294","0 SPACEBEE-167","1 55087U 23001CG  23059.10488491  .00027824  00000-0  14730-2 0  9995","2 55087  97.4936 120.4034 0015942  27.4170 332.7901 15.15280351  8555","2023-001CG","55087","6898.265","95.032","531.127","509.132","0"
"GENERATED VIA SPACETRACK.ORG API","18 SPCS","55087","SPACEBEE-167","PAYLOAD","U","23001CG","2023-02-28 02:31:02","56224","15.15280351","0.0015942","97.4936","120.4034","27.417","332.7901","0","999","855","0.001473","0.00027824","0","3847542","0 SPACEBEE-167","1 55087U 23001CG  23059.10488491  .00027824  00000-0  14730-2 0  9995","2 55087  97.4936 120.4034 0015942  27.4170 332.7901 15.15280351  8555","2023-001CG","55087","6898.265","95.032","531.127","509.132","0"
"GENERATED VIA SPACETRACK.ORG API","18 SPCS","55087","SPACEBEE-167","PAYLOAD","U","23001CG","2023-02-28 21:32:07","472544","15.15314096","0.0015846","97.4935","121.1849","24.9491","335.2504","0","999","867","0.00090135","0.00016991","0","3847656","0 SPACEBEE-167","1 55087U 23001CG  23059.89730871  .00016991  00000-0  90135-3 0  9990","2 55087  97.4935 121.1849 0015846  24.9491 335.2504 15.15314096  8671","2023-001CG","55087","6898.162","95.030","530.958","509.096","0"
"GENERATED VIA SPACETRACK.ORG API","18 SPCS","55087","SPACEBEE-167","PAYLOAD","U","23001CG","2023-03-01 03:52:28","983648","15.15323871","0.001581","97.4936","121.4454","23.8797","336.3166","0","999","871","0.00088847","0.00016751","0","3848244","0 SPACEBEE-167","1 55087U 23001CG  23060.16144657  .00016751  00000-0  88847-3 0  9994","2 55087  97.4936 121.4454 0015810  23.8797 336.3166 15.15323871  8717","2023-001CG","55087","6898.132","95.029","530.903","509.092","0"
"GENERATED VIA SPACETRACK.ORG API","18 SPCS","55087","SPACEBEE-167","PAYLOAD","U","23001CG","2023-03-01 21:18:27","306720","15.15350149","0.001574","97.4935","122.1616","21.7562","338.4335","0","999","882","0.00083305","0.00015711","0","3848834","0 SPACEBEE-167","1 55087U 23001CG  23060.88781605  .00015711  00000-0  83305-3 0  9992","2 55087  97.4935 122.1616 0015740  21.7562 338.4335 15.15350149  8824","2023-001CG","55087","6898.053","95.028","530.775","509.060","0"
"GENERATED VIA SPACETRACK.ORG API","18 SPCS","55087","SPACEBEE-167","PAYLOAD","U","23001CG","2023-03-02 14:44:24","618048","15.15377012","0.0015607","97.4934","122.8778","19.0992","341.0822","0","999","893","0.00088633","0.00016734","0","3849487","0 SPACEBEE-167","1 55087U 23001CG  23061.61417382  .00016734  00000-0  88633-3 0  9997","2 55087  97.4934 122.8778 0015607  19.0992 341.0822 15.15377012  8939","2023-001CG","55087","6897.971","95.026","530.602","509.071","0"
"GENERATED VIA SPACETRACK.ORG API","18 SPCS","55087","SPACEBEE-167","PAYLOAD","U","23001CG","2023-03-03 03:25:05","592576","15.15396867","0.0015574","97.4932","123.3991","16.8825","343.2923","0","999","901","0.00096525","0.00018244","0","3850027","0 SPACEBEE-167","1 55087U 23001CG  23062.14242584  .00018244  00000-0  96525-3 0  9993","2 55087  97.4932 123.3991 0015574  16.8825 343.2923 15.15396867  9018","2023-001CG","55087","6897.911","95.025","530.519","509.033","0"
"GENERATED VIA SPACETRACK.ORG API","18 SPCS","55087","SPACEBEE-167","PAYLOAD","U","23001CG","2023-03-03 03:25:05","592576","15.15396867","0.0015574","97.4932","123.3991","16.8825","343.2923","0","999","901","0.00096525","0.00018244","0","3850163","0 SPACEBEE-167","1 55087U 23001CG  23062.14242584  .00018244  00000-0  96525-3 0  9993","2 55087  97.4932 123.3991 0015574  16.8825 343.2923 15.15396867  9018","2023-001CG","55087","6897.911","95.025","530.519","509.033","0"
"GENERATED VIA SPACETRACK.ORG API","18 SPCS","55087","SPACEBEE-167","PAYLOAD","U","23001CG","2023-03-04 09:31:39","703584","15.15466375","0.0015409","97.4926","124.636","12.2518","347.9086","0","999","920","0.0015036","0.0002855","0","3850781","0 SPACEBEE-167","1 55087U 23001CG  23063.39698731  .00028550  00000-0  15036-2 0  9998","2 55087  97.4926 124.6360 0015409  12.2518 347.9086 15.15466375  9205","2023-001CG","55087","6897.700","95.020","530.194","508.936","0"
"GENERATED VIA SPACETRACK.ORG API","18 SPCS","55087","SPACEBEE-167","PAYLOAD","U","23001CG","2023-03-04 17:27:03","713184","15.15480549","0.0015375","97.4926","124.9616","11.0292","349.1274","0","999","925","0.0012617","0.00023941","0","3851350","0 SPACEBEE-167","1 55087U 23001CG  23063.72712631  .00023941  00000-0  12617-2 0  9992","2 55087  97.4926 124.9616 0015375  11.0292 349.1274 15.15480549  9257","2023-001CG","55087","6897.657","95.019","530.127","508.917","0"
"GENERATED VIA SPACETRACK.ORG API","18 SPCS","55087","SPACEBEE-167","PAYLOAD","U","23001CG","2023-03-04 17:27:03","713184","15.15480549","0.0015375","97.4926","124.9616","11.0292","349.1274","0","999","925","0.0012617","0.00023941","0","3851921","0 SPACEBEE-167","1 55087U 23001CG  23063.72712631  .00023941  00000-0  12617-2 0  9992","2 55087  97.4926 124.9616 0015375  11.0292 349.1274 15.15480549  9257","2023-001CG","55087","6897.657","95.019","530.127","508.917","0"
"GENERATED VIA SPACETRACK.ORG API","18 SPCS","55087","SPACEBEE-167","PAYLOAD","U","23001CG","2023-03-05 21:58:27","490944","15.15545406","0.0015363","97.4925","126.1338","7.0104","353.134","0","999","943","0.0015139","0.00028811","0","3852246","0 SPACEBEE-167","1 55087U 23001CG  23064.91559596  .00028811  00000-0  15139-2 0  9996","2 55087  97.4925 126.1338 0015363   7.0104 353.1340 15.15545406  9438","2023-001CG","55087","6897.460","95.015","529.922","508.729","0"
"GENERATED VIA SPACETRACK.ORG API","18 SPCS","55087","SPACEBEE-167","PAYLOAD","U","23001CG","2023-03-05 21:58:27","490944","15.15545406","0.0015363","97.4925","126.1338","7.0104","353.134","0","999","943","0.0015139","0.00028811","0","3852256","0 SPACEBEE-167","1 55087U 23001CG  23064.91559596  .00028811  00000-0  15139-2 0  9996","2 55087  97.4925 126.1338 0015363   7.0104 353.1340 15.15545406  9438","2023-001CG","55087","6897.460","95.015","529.922","508.729","0"
"GENERATED VIA SPACETRACK.ORG API","18 SPCS","55087","SPACEBEE-167","PAYLOAD","U","23001CG","2023-03-06 02:43:40","974816","15.15557616","0.0015333","97.4924","126.3289","5.7701","354.3706","0","999","946","0.0015194","0.00028926","0","3853141","0 SPACEBEE-167","1 55087U 23001CG  23065.11366869  .00028926  00000-0  15194-2 0  9996","2 55087  97.4924 126.3289 0015333   5.7701 354.3706 15.15557616  9467","2023-001CG","55087","6897.423","95.015","529.864","508.712","0"
